COSMOS 2251 DEB         
1 36459U 93036BBJ 17343.15656059  .00000396  00000-0  21875-3 0  9997
2 36459  74.0228 143.0261 0139234 210.3896 148.9121 14.09888912444200
